GLOBALSTAR M057         
1 25943U 99058A   24346.49980423 -.00000035  00000+0  52938-3 0  9990
2 25943  51.9952 160.8514 0002554  22.3783 337.7177 12.24804905144001
GLOBALSTAR M059         
1 25944U 99058B   24346.53073399 -.00000005  00000+0  10000-2 0  9991
2 25944  52.0042 354.8411 0000097 321.4401 207.1334 11.99973322551519
GLOBALSTAR M056         
1 25945U 99058C   24346.53201348 -.00000127  00000+0 -46258-3 0  9990
2 25945  51.9988   1.6127 0000976 166.5927   1.2665 12.04776090140003
GLOBALSTAR M031         
1 25946U 99058D   24346.53465317  .00000060  00000+0  15315-2 0  9992
2 25946  51.9966 265.1735 0001460 121.5233  49.6123 12.16025006141713
GLOBALSTAR M039         
1 25961U 99062A   24346.58608520 -.00000090  00000+0  74099-4 0  9994
2 25961  51.9832 120.1056 0001619 295.1526  64.9173 12.62313256156525
GLOBALSTAR M034         
1 25962U 99062B   24346.66085424 -.00000049  00000+0  51515-3 0  9997
2 25962  51.9845 138.8446 0014786  51.2543  31.7669 11.79437361116246
GLOBALSTAR M029         
1 25963U 99062C   24346.65689446 -.00000061  00000+0  31237-3 0  9994
2 25963  51.9794 242.6989 0003343  95.5590 273.4809 11.99888819146666
GLOBALSTAR M061         
1 25964U 99062D   24346.41747602 -.00000053  00000+0  44899-3 0  9997
2 25964  51.9814 321.0221 0006213 334.9551 142.7484 11.76768760 99073
